{
    "links": {
        "self": "http://www.neowsapp.com/rest/v1/neo/3717046?api_key=iIulBulltgU6a56xZRHN4H3l9WmuAYTsLGpBGhQ2"
    },
    "id": "3717046",
    "neo_reference_id": "3717046",
    "name": "(2015 HG10)",
    "designation": "2015 HG10",
    "nasa_jpl_url": "http://ssd.jpl.nasa.gov/sbdb.cgi?sstr=3717046",
    "absolute_magnitude_h": 21.6,
    "estimated_diameter": {
        "kilometers": {
            "estimated_diameter_min": 0.1272198785,
            "estimated_diameter_max": 0.2844722965
        },
        "meters": {
            "estimated_diameter_min": 127.2198785394,
            "estimated_diameter_max": 284.4722965033
        },
        "miles": {
            "estimated_diameter_min": 0.0790507431,
            "estimated_diameter_max": 0.1767628354
        },
        "feet": {
            "estimated_diameter_min": 417.3880663071,
            "estimated_diameter_max": 933.3080892598
        }
    },
    "is_potentially_hazardous_asteroid": false,
    "close_approach_data": [
        {
            "close_approach_date": "2014-12-09",
            "close_approach_date_full": "2014-Dec-09 19:56",
            "epoch_date_close_approach": 1418154960000,
            "relative_velocity": {
                "kilometers_per_second": "22.7971053771",
                "kilometers_per_hour": "82069.5793577328",
                "miles_per_hour": "50994.8450181424"
            },
            "miss_distance": {
                "astronomical": "0.4488362052",
                "lunar": "174.5972838228",
                "kilometers": "67144940.276802924",
                "miles": "41721931.2163473912"
            },
            "orbiting_body": "Earth"
        }
    ],
    "orbital_data": {
        "orbit_id": "3",
        "orbit_determination_date": "2017-04-06 08:34:12",
        "first_observation_date": "2015-04-18",
        "last_observation_date": "2015-04-22",
        "data_arc_in_days": 4,
        "observations_used": 20,
        "orbit_uncertainty": "9",
        "minimum_orbit_intersection": ".244643",
        "jupiter_tisserand_invariant": "4.071",
        "epoch_osculation": "2457132.5",
        "eccentricity": ".6501253929188346",
        "semi_major_axis": "1.591243569486076",
        "inclination": "17.60819234775291",
        "ascending_node_longitude": "214.4380134713599",
        "orbital_period": "733.1678613516491",
        "perihelion_distance": ".556735718644372",
        "perihelion_argument": "208.7243346653267",
        "aphelion_distance": "2.625751420327781",
        "perihelion_time": "2456996.195146549508",
        "mean_anomaly": "66.92839365832734",
        "mean_motion": ".4910198864095235",
        "equinox": "J2000",
        "orbit_class": {
            "orbit_class_type": "APO",
            "orbit_class_description": "Near-Earth asteroid orbits which cross the Earth’s orbit similar to that of 1862 Apollo",
            "orbit_class_range": "a (semi-major axis) > 1.0 AU; q (perihelion) < 1.017 AU"
        }
    },
    "is_sentry_object": false
}